{
  "type": "FeatureCollection",
  "features": [
    {
      "type": "Feature",
      "properties": {
        "norad_id": 36540,
        "name": "COSMOS 2251 DEB",
        "group": "cosmos-2251-debris",
        "lat": -40.39371085641908,
        "lon": 5.644432864421805,
        "alt_km": 694.2077586545347,
        "timestamp": "2025-12-17T10:52:54.749799+00:00",
        "meta_object_name": "COSMOS 2251 DEB",
        "meta_object_id": "1993-036BDA",
        "meta_epoch": "2025-12-16T22:20:30.366528",
        "meta_mean_motion": 14.58522153,
        "meta_eccentricity": 0.00148233,
        "meta_inclination": 74.0279,
        "meta_ra_of_asc_node": 172.5343,
        "meta_arg_of_pericenter": 242.5777,
        "meta_mean_anomaly": 117.3881,
        "meta_ephemeris_type": 0,
        "meta_classification_type": "U",
        "meta_norad_cat_id": 36540,
        "meta_element_set_no": 999,
        "meta_rev_at_epoch": 86071,
        "meta_bstar": 0.00085899998,
        "meta_mean_motion_dot": 3.97e-05,
        "meta_mean_motion_ddot": 0,
        "tle_line1": "1 36540U 93036BDA 25350.93090702  .00003970  00000+0  85900-3 0  9997",
        "tle_line2": "2 36540  74.0279 172.5343 0014823 242.5777 117.3881 14.58522153860713"
      },
      "geometry": {
        "type": "Point",
        "coordinates": [
          5.644432864421805,
          -40.39371085641908
        ]
      }
    },
    {
      "type": "Feature",
      "properties": {
        "norad_id": 36550,
        "name": "COSMOS 2251 DEB",
        "group": "cosmos-2251-debris",
        "lat": -66.12904455780865,
        "lon": 44.49430007074378,
        "alt_km": 754.5651945376658,
        "timestamp": "2025-12-17T10:52:54.749809+00:00",
        "meta_object_name": "COSMOS 2251 DEB",
        "meta_object_id": "1993-036BDL",
        "meta_epoch": "2025-12-16T20:14:40.612704",
        "meta_mean_motion": 14.27212033,
        "meta_eccentricity": 0.00781743,
        "meta_inclination": 74.0437,
        "meta_ra_of_asc_node": 185.3179,
        "meta_arg_of_pericenter": 235.0722,
        "meta_mean_anomaly": 124.3066,
        "meta_ephemeris_type": 0,
        "meta_classification_type": "U",
        "meta_norad_cat_id": 36550,
        "meta_element_set_no": 999,
        "meta_rev_at_epoch": 84654,
        "meta_bstar": 0.00049931577,
        "meta_mean_motion_dot": 1.234e-05,
        "meta_mean_motion_ddot": 0,
        "tle_line1": "1 36550U 93036BDL 25350.84352561  .00001234  00000+0  49932-3 0  9998",
        "tle_line2": "2 36550  74.0437 185.3179 0078174 235.0722 124.3066 14.27212033846542"
      },
      "geometry": {
        "type": "Point",
        "coordinates": [
          44.49430007074378,
          -66.12904455780865
        ]
      }
    },
    {
      "type": "Feature",
      "properties": {
        "norad_id": 36551,
        "name": "COSMOS 2251 DEB",
        "group": "cosmos-2251-debris",
        "lat": 31.40754058188808,
        "lon": 174.83132610895277,
        "alt_km": 590.8294984406784,
        "timestamp": "2025-12-17T10:52:54.749819+00:00",
        "meta_object_name": "COSMOS 2251 DEB",
        "meta_object_id": "1993-036BDM",
        "meta_epoch": "2025-12-15T18:16:54.856128",
        "meta_mean_motion": 15.02667404,
        "meta_eccentricity": 0.00509963,
        "meta_inclination": 73.8871,
        "meta_ra_of_asc_node": 8.48,
        "meta_arg_of_pericenter": 317.1051,
        "meta_mean_anomaly": 42.6163,
        "meta_ephemeris_type": 0,
        "meta_classification_type": "U",
        "meta_norad_cat_id": 36551,
        "meta_element_set_no": 999,
        "meta_rev_at_epoch": 66977,
        "meta_bstar": 0.0007245537,
        "meta_mean_motion_dot": 9.911e-05,
        "meta_mean_motion_ddot": 0,
        "tle_line1": "1 36551U 93036BDM 25349.76174602  .00009911  00000+0  72455-3 0  9992",
        "tle_line2": "2 36551  73.8871   8.4800 0050996 317.1051  42.6163 15.02667404669775"
      },
      "geometry": {
        "type": "Point",
        "coordinates": [
          174.83132610895277,
          31.40754058188808
        ]
      }
    },
    {
      "type": "Feature",
      "properties": {
        "norad_id": 36557,
        "name": "COSMOS 2251 DEB",
        "group": "cosmos-2251-debris",
        "lat": 70.1789332410823,
        "lon": 169.8190223965207,
        "alt_km": 641.9488439005063,
        "timestamp": "2025-12-17T10:52:54.749829+00:00",
        "meta_object_name": "COSMOS 2251 DEB",
        "meta_object_id": "1993-036BDT",
        "meta_epoch": "2025-12-16T15:02:26.530080",
        "meta_mean_motion": 14.78433531,
        "meta_eccentricity": 0.00216791,
        "meta_inclination": 73.9792,
        "meta_ra_of_asc_node": 118.5873,
        "meta_arg_of_pericenter": 270.9403,
        "meta_mean_anomaly": 88.9288,
        "meta_ephemeris_type": 0,
        "meta_classification_type": "U",
        "meta_norad_cat_id": 36557,
        "meta_element_set_no": 999,
        "meta_rev_at_epoch": 33954,
        "meta_bstar": 0.0025552637,
        "meta_mean_motion_dot": 0.00018721,
        "meta_mean_motion_ddot": 0,
        "tle_line1": "1 36557U 93036BDT 25350.62669595  .00018721  00000+0  25553-2 0  9990",
        "tle_line2": "2 36557  73.9792 118.5873 0021679 270.9403  88.9288 14.78433531339544"
      },
      "geometry": {
        "type": "Point",
        "coordinates": [
          169.8190223965207,
          70.1789332410823
        ]
      }
    },
    {
      "type": "Feature",
      "properties": {
        "norad_id": 36558,
        "name": "COSMOS 2251 DEB",
        "group": "cosmos-2251-debris",
        "lat": -12.198584406888765,
        "lon": 142.07422591854515,
        "alt_km": 715.8183037329891,
        "timestamp": "2025-12-17T10:52:54.749839+00:00",
        "meta_object_name": "COSMOS 2251 DEB",
        "meta_object_id": "1993-036BDU",
        "meta_epoch": "2025-12-13T04:39:28.280448",
        "meta_mean_motion": 14.5536689,
        "meta_eccentricity": 0.00129076,
        "meta_inclination": 74.0417,
        "meta_ra_of_asc_node": 153.6824,
        "meta_arg_of_pericenter": 242.3004,
        "meta_mean_anomaly": 117.6851,
        "meta_ephemeris_type": 0,
        "meta_classification_type": "U",
        "meta_norad_cat_id": 36558,
        "meta_element_set_no": 999,
        "meta_rev_at_epoch": 85275,
        "meta_bstar": 0.0014840285,
        "meta_mean_motion_dot": 6.426e-05,
        "meta_mean_motion_ddot": 0,
        "tle_line1": "1 36558U 93036BDU 25347.19407732  .00006426  00000+0  14840-2 0  9998",
        "tle_line2": "2 36558  74.0417 153.6824 0012907 242.3004 117.6851 14.55366890852758"
      },
      "geometry": {
        "type": "Point",
        "coordinates": [
          142.07422591854515,
          -12.198584406888765
        ]
      }
    },
    {
      "type": "Feature",
      "properties": {
        "norad_id": 36559,
        "name": "COSMOS 2251 DEB",
        "group": "cosmos-2251-debris",
        "lat": -55.98946232686939,
        "lon": -153.31294367977986,
        "alt_km": 1086.360775989985,
        "timestamp": "2025-12-17T10:52:54.749849+00:00",
        "meta_object_name": "COSMOS 2251 DEB",
        "meta_object_id": "1993-036BDV",
        "meta_epoch": "2025-12-16T01:02:38.774976",
        "meta_mean_motion": 13.95226172,
        "meta_eccentricity": 0.0260446,
        "meta_inclination": 74.1323,
        "meta_ra_of_asc_node": 4.1653,
        "meta_arg_of_pericenter": 36.0043,
        "meta_mean_anomaly": 325.8321,
        "meta_ephemeris_type": 0,
        "meta_classification_type": "U",
        "meta_norad_cat_id": 36559,
        "meta_element_set_no": 999,
        "meta_rev_at_epoch": 81140,
        "meta_bstar": 0.0020581095,
        "meta_mean_motion_dot": 3.672e-05,
        "meta_mean_motion_ddot": 0,
        "tle_line1": "1 36559U 93036BDV 25350.04350434  .00003672  00000+0  20581-2 0  9992",
        "tle_line2": "2 36559  74.1323   4.1653 0260446  36.0043 325.8321 13.95226172811403"
      },
      "geometry": {
        "type": "Point",
        "coordinates": [
          -153.31294367977986,
          -55.98946232686939
        ]
      }
    },
    {
      "type": "Feature",
      "properties": {
        "norad_id": 36614,
        "name": "COSMOS 2251 DEB",
        "group": "cosmos-2251-debris",
        "lat": 73.84120468358007,
        "lon": -112.9722736894357,
        "alt_km": 694.0573083990485,
        "timestamp": "2025-12-17T10:52:54.749859+00:00",
        "meta_object_name": "COSMOS 2251 DEB",
        "meta_object_id": "1993-036BEC",
        "meta_epoch": "2025-12-11T06:30:21.400992",
        "meta_mean_motion": 14.60233542,
        "meta_eccentricity": 0.00161993,
        "meta_inclination": 74.0218,
        "meta_ra_of_asc_node": 177.391,
        "meta_arg_of_pericenter": 247.2616,
        "meta_mean_anomaly": 112.6838,
        "meta_ephemeris_type": 0,
        "meta_classification_type": "U",
        "meta_norad_cat_id": 36614,
        "meta_element_set_no": 999,
        "meta_rev_at_epoch": 65591,
        "meta_bstar": 0.0024222077,
        "meta_mean_motion_dot": 0.00011696,
        "meta_mean_motion_ddot": 0,
        "tle_line1": "1 36614U 93036BEC 25345.27108103  .00011696  00000+0  24222-2 0  9998",
        "tle_line2": "2 36614  74.0218 177.3910 0016199 247.2616 112.6838 14.60233542655911"
      },
      "geometry": {
        "type": "Point",
        "coordinates": [
          -112.9722736894357,
          73.84120468358007
        ]
      }
    }
  ]
}